<?xml version="1.0" encoding="UTF-8"?>
<gpx version="1.1" creator="plan_360.js" xmlns="http://www.topografix.com/GPX/1/1">
 <metadata><name>Relevé 360 — parcours-360-long</name>
  <desc>8.04 km, 726 bâtiments vus de deux points de vue</desc>
 </metadata>
 <trk><name>Relevé 360</name><trkseg>
  <trkpt lat="46.3605918" lon="-0.1126588"/>
  <trkpt lat="46.3606764" lon="-0.1127133"/>
  <trkpt lat="46.3605918" lon="-0.1126588"/>
  <trkpt lat="46.3604245" lon="-0.1125015"/>
  <trkpt lat="46.3602445" lon="-0.1123235"/>
  <trkpt lat="46.3602454" lon="-0.1122872"/>
  <trkpt lat="46.3602445" lon="-0.1123235"/>
  <trkpt lat="46.3604245" lon="-0.1125015"/>
  <trkpt lat="46.3602400" lon="-0.1129966"/>
  <trkpt lat="46.3601429" lon="-0.1129316"/>
  <trkpt lat="46.3596733" lon="-0.1125080"/>
  <trkpt lat="46.3596544" lon="-0.1124937"/>
  <trkpt lat="46.3593503" lon="-0.1122599"/>
  <trkpt lat="46.3591884" lon="-0.1126484"/>
  <trkpt lat="46.3592721" lon="-0.1126951"/>
  <trkpt lat="46.3591884" lon="-0.1126484"/>
  <trkpt lat="46.3593503" lon="-0.1122599"/>
  <trkpt lat="46.3595204" lon="-0.1118870"/>
  <trkpt lat="46.3596796" lon="-0.1115322"/>
  <trkpt lat="46.3596085" lon="-0.1114634"/>
  <trkpt lat="46.3594655" lon="-0.1113178"/>
  <trkpt lat="46.3596085" lon="-0.1114634"/>
  <trkpt lat="46.3596796" lon="-0.1115322"/>
  <trkpt lat="46.3595204" lon="-0.1118870"/>
  <trkpt lat="46.3593503" lon="-0.1122599"/>
  <trkpt lat="46.3592999" lon="-0.1122157"/>
  <trkpt lat="46.3589752" lon="-0.1119324"/>
  <trkpt lat="46.3587656" lon="-0.1117115"/>
  <trkpt lat="46.3584066" lon="-0.1113867"/>
  <trkpt lat="46.3582339" lon="-0.1112711"/>
  <trkpt lat="46.3581448" lon="-0.1112399"/>
  <trkpt lat="46.3580531" lon="-0.1112347"/>
  <trkpt lat="46.3579586" lon="-0.1112399"/>
  <trkpt lat="46.3578354" lon="-0.1112503"/>
  <trkpt lat="46.3577499" lon="-0.1112516"/>
  <trkpt lat="46.3577580" lon="-0.1111580"/>
  <trkpt lat="46.3577499" lon="-0.1112516"/>
  <trkpt lat="46.3577013" lon="-0.1115231"/>
  <trkpt lat="46.3575736" lon="-0.1117947"/>
  <trkpt lat="46.3574161" lon="-0.1116661"/>
  <trkpt lat="46.3573640" lon="-0.1118857"/>
  <trkpt lat="46.3573604" lon="-0.1119883"/>
  <trkpt lat="46.3573181" lon="-0.1121624"/>
  <trkpt lat="46.3572551" lon="-0.1123326"/>
  <trkpt lat="46.3574629" lon="-0.1125730"/>
  <trkpt lat="46.3575232" lon="-0.1126042"/>
  <trkpt lat="46.3575700" lon="-0.1126432"/>
  <trkpt lat="46.3576195" lon="-0.1126874"/>
  <trkpt lat="46.3576779" lon="-0.1127523"/>
  <trkpt lat="46.3577202" lon="-0.1128017"/>
  <trkpt lat="46.3578570" lon="-0.1129290"/>
  <trkpt lat="46.3580144" lon="-0.1130018"/>
  <trkpt lat="46.3581304" lon="-0.1129680"/>
  <trkpt lat="46.3581970" lon="-0.1131278"/>
  <trkpt lat="46.3582411" lon="-0.1132837"/>
  <trkpt lat="46.3582492" lon="-0.1133201"/>
  <trkpt lat="46.3582906" lon="-0.1132669"/>
  <trkpt lat="46.3583140" lon="-0.1132409"/>
  <trkpt lat="46.3582906" lon="-0.1132669"/>
  <trkpt lat="46.3582492" lon="-0.1133201"/>
  <trkpt lat="46.3582411" lon="-0.1132837"/>
  <trkpt lat="46.3581970" lon="-0.1131278"/>
  <trkpt lat="46.3581304" lon="-0.1129680"/>
  <trkpt lat="46.3580144" lon="-0.1130018"/>
  <trkpt lat="46.3578570" lon="-0.1129290"/>
  <trkpt lat="46.3577202" lon="-0.1128017"/>
  <trkpt lat="46.3576779" lon="-0.1127523"/>
  <trkpt lat="46.3576195" lon="-0.1126874"/>
  <trkpt lat="46.3575700" lon="-0.1126432"/>
  <trkpt lat="46.3575232" lon="-0.1126042"/>
  <trkpt lat="46.3574629" lon="-0.1125730"/>
  <trkpt lat="46.3572551" lon="-0.1123326"/>
  <trkpt lat="46.3571840" lon="-0.1125067"/>
  <trkpt lat="46.3570689" lon="-0.1126757"/>
  <trkpt lat="46.3569870" lon="-0.1127744"/>
  <trkpt lat="46.3571067" lon="-0.1131369"/>
  <trkpt lat="46.3571247" lon="-0.1131512"/>
  <trkpt lat="46.3572362" lon="-0.1130577"/>
  <trkpt lat="46.3572497" lon="-0.1130875"/>
  <trkpt lat="46.3573127" lon="-0.1132850"/>
  <trkpt lat="46.3573325" lon="-0.1133253"/>
  <trkpt lat="46.3573415" lon="-0.1133578"/>
  <trkpt lat="46.3573325" lon="-0.1133253"/>
  <trkpt lat="46.3573127" lon="-0.1132850"/>
  <trkpt lat="46.3572497" lon="-0.1130875"/>
  <trkpt lat="46.3572362" lon="-0.1130577"/>
  <trkpt lat="46.3571247" lon="-0.1131512"/>
  <trkpt lat="46.3571067" lon="-0.1131369"/>
  <trkpt lat="46.3569870" lon="-0.1127744"/>
  <trkpt lat="46.3568053" lon="-0.1130408"/>
  <trkpt lat="46.3567153" lon="-0.1132162"/>
  <trkpt lat="46.3566839" lon="-0.1133695"/>
  <trkpt lat="46.3566065" lon="-0.1137372"/>
  <trkpt lat="46.3564374" lon="-0.1142440"/>
  <trkpt lat="46.3564194" lon="-0.1143310"/>
  <trkpt lat="46.3564059" lon="-0.1143674"/>
  <trkpt lat="46.3564868" lon="-0.1144908"/>
  <trkpt lat="46.3566326" lon="-0.1148001"/>
  <trkpt lat="46.3566956" lon="-0.1149677"/>
  <trkpt lat="46.3568323" lon="-0.1153497"/>
  <trkpt lat="46.3568629" lon="-0.1154277"/>
  <trkpt lat="46.3568755" lon="-0.1154601"/>
  <trkpt lat="46.3569987" lon="-0.1153887"/>
  <trkpt lat="46.3575142" lon="-0.1150573"/>
  <trkpt lat="46.3576393" lon="-0.1149495"/>
  <trkpt lat="46.3578498" lon="-0.1147026"/>
  <trkpt lat="46.3580585" lon="-0.1144012"/>
  <trkpt lat="46.3582051" lon="-0.1143258"/>
  <trkpt lat="46.3585794" lon="-0.1143089"/>
  <trkpt lat="46.3587026" lon="-0.1142816"/>
  <trkpt lat="46.3588196" lon="-0.1142050"/>
  <trkpt lat="46.3589572" lon="-0.1140750"/>
  <trkpt lat="46.3589923" lon="-0.1140413"/>
  <trkpt lat="46.3590903" lon="-0.1139711"/>
  <trkpt lat="46.3591803" lon="-0.1139503"/>
  <trkpt lat="46.3592595" lon="-0.1139971"/>
  <trkpt lat="46.3593260" lon="-0.1140841"/>
  <trkpt lat="46.3594124" lon="-0.1142453"/>
  <trkpt lat="46.3594313" lon="-0.1142050"/>
  <trkpt lat="46.3594124" lon="-0.1142453"/>
  <trkpt lat="46.3593737" lon="-0.1143310"/>
  <trkpt lat="46.3594124" lon="-0.1142453"/>
  <trkpt lat="46.3594313" lon="-0.1142050"/>
  <trkpt lat="46.3595653" lon="-0.1141283"/>
  <trkpt lat="46.3596004" lon="-0.1141192"/>
  <trkpt lat="46.3596688" lon="-0.1141010"/>
  <trkpt lat="46.3597291" lon="-0.1141140"/>
  <trkpt lat="46.3597902" lon="-0.1141777"/>
  <trkpt lat="46.3599054" lon="-0.1143973"/>
  <trkpt lat="46.3600295" lon="-0.1146247"/>
  <trkpt lat="46.3601285" lon="-0.1147741"/>
  <trkpt lat="46.3601618" lon="-0.1148079"/>
  <trkpt lat="46.3601798" lon="-0.1147221"/>
  <trkpt lat="46.3602059" lon="-0.1146351"/>
  <trkpt lat="46.3604110" lon="-0.1143986"/>
  <trkpt lat="46.3605189" lon="-0.1142686"/>
  <trkpt lat="46.3606368" lon="-0.1140867"/>
  <trkpt lat="46.3607231" lon="-0.1139633"/>
  <trkpt lat="46.3607888" lon="-0.1140348"/>
  <trkpt lat="46.3608518" lon="-0.1141036"/>
  <trkpt lat="46.3609445" lon="-0.1142414"/>
  <trkpt lat="46.3611271" lon="-0.1145766"/>
  <trkpt lat="46.3609445" lon="-0.1142414"/>
  <trkpt lat="46.3608518" lon="-0.1141036"/>
  <trkpt lat="46.3607888" lon="-0.1140348"/>
  <trkpt lat="46.3609615" lon="-0.1139074"/>
  <trkpt lat="46.3610875" lon="-0.1139321"/>
  <trkpt lat="46.3613016" lon="-0.1139503"/>
  <trkpt lat="46.3614410" lon="-0.1139984"/>
  <trkpt lat="46.3615499" lon="-0.1140776"/>
  <trkpt lat="46.3616992" lon="-0.1141764"/>
  <trkpt lat="46.3617658" lon="-0.1143206"/>
  <trkpt lat="46.3617892" lon="-0.1144155"/>
  <trkpt lat="46.3617658" lon="-0.1143206"/>
  <trkpt lat="46.3616992" lon="-0.1141764"/>
  <trkpt lat="46.3618828" lon="-0.1135631"/>
  <trkpt lat="46.3618953" lon="-0.1135215"/>
  <trkpt lat="46.3615940" lon="-0.1133838"/>
  <trkpt lat="46.3613088" lon="-0.1132967"/>
  <trkpt lat="46.3610245" lon="-0.1132461"/>
  <trkpt lat="46.3609355" lon="-0.1132370"/>
  <trkpt lat="46.3609391" lon="-0.1131798"/>
  <trkpt lat="46.3610011" lon="-0.1127055"/>
  <trkpt lat="46.3611001" lon="-0.1126705"/>
  <trkpt lat="46.3612008" lon="-0.1125678"/>
  <trkpt lat="46.3613043" lon="-0.1123183"/>
  <trkpt lat="46.3614239" lon="-0.1120546"/>
  <trkpt lat="46.3613493" lon="-0.1119181"/>
  <trkpt lat="46.3611460" lon="-0.1121234"/>
  <trkpt lat="46.3610281" lon="-0.1122183"/>
  <trkpt lat="46.3610137" lon="-0.1122859"/>
  <trkpt lat="46.3610650" lon="-0.1123313"/>
  <trkpt lat="46.3609453" lon="-0.1126445"/>
  <trkpt lat="46.3610011" lon="-0.1127055"/>
  <trkpt lat="46.3609391" lon="-0.1131798"/>
  <trkpt lat="46.3609355" lon="-0.1132370"/>
  <trkpt lat="46.3607186" lon="-0.1131759"/>
  <trkpt lat="46.3605945" lon="-0.1131902"/>
  <trkpt lat="46.3605963" lon="-0.1133149"/>
  <trkpt lat="46.3604937" lon="-0.1133955"/>
  <trkpt lat="46.3604245" lon="-0.1135033"/>
  <trkpt lat="46.3603651" lon="-0.1136203"/>
  <trkpt lat="46.3601654" lon="-0.1134085"/>
  <trkpt lat="46.3599171" lon="-0.1132136"/>
  <trkpt lat="46.3598181" lon="-0.1131291"/>
  <trkpt lat="46.3597192" lon="-0.1130447"/>
  <trkpt lat="46.3595231" lon="-0.1128628"/>
  <trkpt lat="46.3597192" lon="-0.1130447"/>
  <trkpt lat="46.3598181" lon="-0.1131291"/>
  <trkpt lat="46.3595285" lon="-0.1136632"/>
  <trkpt lat="46.3594592" lon="-0.1135527"/>
  <trkpt lat="46.3593404" lon="-0.1133357"/>
  <trkpt lat="46.3594592" lon="-0.1135527"/>
  <trkpt lat="46.3595285" lon="-0.1136632"/>
  <trkpt lat="46.3596157" lon="-0.1138022"/>
  <trkpt lat="46.3596778" lon="-0.1139126"/>
  <trkpt lat="46.3597030" lon="-0.1139815"/>
  <trkpt lat="46.3597291" lon="-0.1141140"/>
  <trkpt lat="46.3596688" lon="-0.1141010"/>
  <trkpt lat="46.3596004" lon="-0.1141192"/>
  <trkpt lat="46.3595896" lon="-0.1141829"/>
  <trkpt lat="46.3595968" lon="-0.1143934"/>
  <trkpt lat="46.3596058" lon="-0.1144986"/>
  <trkpt lat="46.3596274" lon="-0.1146026"/>
  <trkpt lat="46.3596787" lon="-0.1147546"/>
  <trkpt lat="46.3597803" lon="-0.1150729"/>
  <trkpt lat="46.3598019" lon="-0.1150573"/>
  <trkpt lat="46.3598514" lon="-0.1151626"/>
  <trkpt lat="46.3598739" lon="-0.1152678"/>
  <trkpt lat="46.3598595" lon="-0.1152769"/>
  <trkpt lat="46.3598055" lon="-0.1153081"/>
  <trkpt lat="46.3598595" lon="-0.1152769"/>
  <trkpt lat="46.3598739" lon="-0.1152678"/>
  <trkpt lat="46.3599540" lon="-0.1153198"/>
  <trkpt lat="46.3600727" lon="-0.1153471"/>
  <trkpt lat="46.3600619" lon="-0.1154225"/>
  <trkpt lat="46.3601105" lon="-0.1154471"/>
  <trkpt lat="46.3603003" lon="-0.1155953"/>
  <trkpt lat="46.3604605" lon="-0.1157434"/>
  <trkpt lat="46.3605459" lon="-0.1155303"/>
  <trkpt lat="46.3607204" lon="-0.1152406"/>
  <trkpt lat="46.3608806" lon="-0.1154004"/>
  <trkpt lat="46.3608842" lon="-0.1154238"/>
  <trkpt lat="46.3608563" lon="-0.1154978"/>
  <trkpt lat="46.3610884" lon="-0.1156927"/>
  <trkpt lat="46.3611793" lon="-0.1158382"/>
  <trkpt lat="46.3613205" lon="-0.1159981"/>
  <trkpt lat="46.3614878" lon="-0.1161644"/>
  <trkpt lat="46.3615778" lon="-0.1159552"/>
  <trkpt lat="46.3618189" lon="-0.1154212"/>
  <trkpt lat="46.3619952" lon="-0.1151704"/>
  <trkpt lat="46.3620888" lon="-0.1151067"/>
  <trkpt lat="46.3621409" lon="-0.1150768"/>
  <trkpt lat="46.3621526" lon="-0.1152185"/>
  <trkpt lat="46.3621409" lon="-0.1150768"/>
  <trkpt lat="46.3622138" lon="-0.1150054"/>
  <trkpt lat="46.3624540" lon="-0.1147247"/>
  <trkpt lat="46.3626348" lon="-0.1144804"/>
  <trkpt lat="46.3627743" lon="-0.1142803"/>
  <trkpt lat="46.3627977" lon="-0.1142349"/>
  <trkpt lat="46.3625548" lon="-0.1140595"/>
  <trkpt lat="46.3623955" lon="-0.1139087"/>
  <trkpt lat="46.3621742" lon="-0.1137138"/>
  <trkpt lat="46.3623955" lon="-0.1139087"/>
  <trkpt lat="46.3625548" lon="-0.1140595"/>
  <trkpt lat="46.3627977" lon="-0.1142349"/>
  <trkpt lat="46.3628804" lon="-0.1142998"/>
  <trkpt lat="46.3632430" lon="-0.1145870"/>
  <trkpt lat="46.3633140" lon="-0.1147585"/>
  <trkpt lat="46.3633554" lon="-0.1148650"/>
  <trkpt lat="46.3634274" lon="-0.1149235"/>
  <trkpt lat="46.3634571" lon="-0.1149430"/>
  <trkpt lat="46.3634274" lon="-0.1149235"/>
  <trkpt lat="46.3633554" lon="-0.1148650"/>
  <trkpt lat="46.3633140" lon="-0.1147585"/>
  <trkpt lat="46.3632430" lon="-0.1145870"/>
  <trkpt lat="46.3628804" lon="-0.1142998"/>
  <trkpt lat="46.3627977" lon="-0.1142349"/>
  <trkpt lat="46.3625548" lon="-0.1140595"/>
  <trkpt lat="46.3623955" lon="-0.1139087"/>
  <trkpt lat="46.3621742" lon="-0.1137138"/>
  <trkpt lat="46.3620123" lon="-0.1135839"/>
  <trkpt lat="46.3618953" lon="-0.1135215"/>
  <trkpt lat="46.3615940" lon="-0.1133838"/>
  <trkpt lat="46.3613088" lon="-0.1132967"/>
  <trkpt lat="46.3610245" lon="-0.1132461"/>
  <trkpt lat="46.3609355" lon="-0.1132370"/>
  <trkpt lat="46.3609391" lon="-0.1131798"/>
  <trkpt lat="46.3610011" lon="-0.1127055"/>
  <trkpt lat="46.3609453" lon="-0.1126445"/>
  <trkpt lat="46.3610650" lon="-0.1123313"/>
  <trkpt lat="46.3610137" lon="-0.1122859"/>
  <trkpt lat="46.3610281" lon="-0.1122183"/>
  <trkpt lat="46.3609040" lon="-0.1121481"/>
  <trkpt lat="46.3607393" lon="-0.1120299"/>
  <trkpt lat="46.3608914" lon="-0.1116076"/>
  <trkpt lat="46.3609930" lon="-0.1113347"/>
  <trkpt lat="46.3611217" lon="-0.1109839"/>
  <trkpt lat="46.3611819" lon="-0.1108085"/>
  <trkpt lat="46.3615868" lon="-0.1091739"/>
  <trkpt lat="46.3611819" lon="-0.1108085"/>
  <trkpt lat="46.3611217" lon="-0.1109839"/>
  <trkpt lat="46.3610785" lon="-0.1109488"/>
  <trkpt lat="46.3609085" lon="-0.1107721"/>
  <trkpt lat="46.3608302" lon="-0.1106942"/>
  <trkpt lat="46.3606422" lon="-0.1105136"/>
  <trkpt lat="46.3605117" lon="-0.1103485"/>
  <trkpt lat="46.3605666" lon="-0.1101887"/>
  <trkpt lat="46.3604982" lon="-0.1101004"/>
  <trkpt lat="46.3604317" lon="-0.1099522"/>
  <trkpt lat="46.3604982" lon="-0.1101004"/>
  <trkpt lat="46.3605666" lon="-0.1101887"/>
  <trkpt lat="46.3605117" lon="-0.1103485"/>
  <trkpt lat="46.3606422" lon="-0.1105136"/>
  <trkpt lat="46.3608302" lon="-0.1106942"/>
  <trkpt lat="46.3609085" lon="-0.1107721"/>
  <trkpt lat="46.3608329" lon="-0.1109293"/>
  <trkpt lat="46.3607978" lon="-0.1109073"/>
  <trkpt lat="46.3607681" lon="-0.1109086"/>
  <trkpt lat="46.3606575" lon="-0.1112724"/>
  <trkpt lat="46.3606107" lon="-0.1113841"/>
  <trkpt lat="46.3604164" lon="-0.1111892"/>
  <trkpt lat="46.3601789" lon="-0.1115426"/>
  <trkpt lat="46.3600520" lon="-0.1117414"/>
  <trkpt lat="46.3599144" lon="-0.1119922"/>
  <trkpt lat="46.3597884" lon="-0.1122326"/>
  <trkpt lat="46.3596544" lon="-0.1124937"/>
  <trkpt lat="46.3593503" lon="-0.1122599"/>
  <trkpt lat="46.3591884" lon="-0.1126484"/>
  <trkpt lat="46.3590696" lon="-0.1125834"/>
  <trkpt lat="46.3588672" lon="-0.1124613"/>
  <trkpt lat="46.3585866" lon="-0.1123183"/>
  <trkpt lat="46.3583284" lon="-0.1125925"/>
  <trkpt lat="46.3581925" lon="-0.1128693"/>
  <trkpt lat="46.3581304" lon="-0.1129680"/>
  <trkpt lat="46.3580144" lon="-0.1130018"/>
  <trkpt lat="46.3578570" lon="-0.1129290"/>
  <trkpt lat="46.3577202" lon="-0.1128017"/>
  <trkpt lat="46.3576779" lon="-0.1127523"/>
  <trkpt lat="46.3576195" lon="-0.1126874"/>
  <trkpt lat="46.3575700" lon="-0.1126432"/>
  <trkpt lat="46.3575232" lon="-0.1126042"/>
  <trkpt lat="46.3574629" lon="-0.1125730"/>
  <trkpt lat="46.3572551" lon="-0.1123326"/>
  <trkpt lat="46.3573181" lon="-0.1121624"/>
  <trkpt lat="46.3573604" lon="-0.1119883"/>
  <trkpt lat="46.3573640" lon="-0.1118857"/>
  <trkpt lat="46.3574161" lon="-0.1116661"/>
  <trkpt lat="46.3575736" lon="-0.1117947"/>
  <trkpt lat="46.3577013" lon="-0.1115231"/>
  <trkpt lat="46.3577499" lon="-0.1112516"/>
  <trkpt lat="46.3576213" lon="-0.1112256"/>
  <trkpt lat="46.3575376" lon="-0.1111866"/>
  <trkpt lat="46.3572641" lon="-0.1109086"/>
  <trkpt lat="46.3571607" lon="-0.1107669"/>
  <trkpt lat="46.3569771" lon="-0.1104278"/>
  <trkpt lat="46.3568845" lon="-0.1102498"/>
  <trkpt lat="46.3567126" lon="-0.1104421"/>
  <trkpt lat="46.3568845" lon="-0.1102498"/>
  <trkpt lat="46.3569771" lon="-0.1104278"/>
  <trkpt lat="46.3571607" lon="-0.1107669"/>
  <trkpt lat="46.3572641" lon="-0.1109086"/>
  <trkpt lat="46.3575376" lon="-0.1111866"/>
  <trkpt lat="46.3576213" lon="-0.1112256"/>
  <trkpt lat="46.3577499" lon="-0.1112516"/>
  <trkpt lat="46.3577013" lon="-0.1115231"/>
  <trkpt lat="46.3575736" lon="-0.1117947"/>
  <trkpt lat="46.3574161" lon="-0.1116661"/>
  <trkpt lat="46.3573289" lon="-0.1115855"/>
  <trkpt lat="46.3572596" lon="-0.1114530"/>
  <trkpt lat="46.3573289" lon="-0.1115855"/>
  <trkpt lat="46.3574161" lon="-0.1116661"/>
  <trkpt lat="46.3573640" lon="-0.1118857"/>
  <trkpt lat="46.3573604" lon="-0.1119883"/>
  <trkpt lat="46.3573181" lon="-0.1121624"/>
  <trkpt lat="46.3574890" lon="-0.1123300"/>
  <trkpt lat="46.3576644" lon="-0.1125015"/>
  <trkpt lat="46.3574890" lon="-0.1123300"/>
  <trkpt lat="46.3573181" lon="-0.1121624"/>
  <trkpt lat="46.3572551" lon="-0.1123326"/>
  <trkpt lat="46.3571840" lon="-0.1125067"/>
  <trkpt lat="46.3570689" lon="-0.1126757"/>
  <trkpt lat="46.3569870" lon="-0.1127744"/>
  <trkpt lat="46.3568053" lon="-0.1130408"/>
  <trkpt lat="46.3567153" lon="-0.1132162"/>
  <trkpt lat="46.3565561" lon="-0.1132188"/>
  <trkpt lat="46.3564940" lon="-0.1132006"/>
  <trkpt lat="46.3564257" lon="-0.1131434"/>
  <trkpt lat="46.3563564" lon="-0.1130577"/>
  <trkpt lat="46.3564257" lon="-0.1131434"/>
  <trkpt lat="46.3564940" lon="-0.1132006"/>
  <trkpt lat="46.3565561" lon="-0.1132188"/>
  <trkpt lat="46.3567153" lon="-0.1132162"/>
  <trkpt lat="46.3566839" lon="-0.1133695"/>
  <trkpt lat="46.3566065" lon="-0.1137372"/>
  <trkpt lat="46.3564374" lon="-0.1142440"/>
  <trkpt lat="46.3564194" lon="-0.1143310"/>
  <trkpt lat="46.3564059" lon="-0.1143674"/>
  <trkpt lat="46.3564868" lon="-0.1144908"/>
  <trkpt lat="46.3566326" lon="-0.1148001"/>
  <trkpt lat="46.3566956" lon="-0.1149677"/>
  <trkpt lat="46.3568323" lon="-0.1153497"/>
  <trkpt lat="46.3568629" lon="-0.1154277"/>
  <trkpt lat="46.3568755" lon="-0.1154601"/>
  <trkpt lat="46.3565426" lon="-0.1157720"/>
  <trkpt lat="46.3568755" lon="-0.1154601"/>
  <trkpt lat="46.3569987" lon="-0.1153887"/>
  <trkpt lat="46.3575142" lon="-0.1150573"/>
  <trkpt lat="46.3576393" lon="-0.1149495"/>
  <trkpt lat="46.3578498" lon="-0.1147026"/>
  <trkpt lat="46.3580585" lon="-0.1144012"/>
  <trkpt lat="46.3582051" lon="-0.1143258"/>
  <trkpt lat="46.3585794" lon="-0.1143089"/>
  <trkpt lat="46.3587026" lon="-0.1142816"/>
  <trkpt lat="46.3588196" lon="-0.1142050"/>
  <trkpt lat="46.3589572" lon="-0.1140750"/>
  <trkpt lat="46.3589923" lon="-0.1140413"/>
  <trkpt lat="46.3590903" lon="-0.1139711"/>
  <trkpt lat="46.3591803" lon="-0.1139503"/>
  <trkpt lat="46.3592595" lon="-0.1139971"/>
  <trkpt lat="46.3593260" lon="-0.1140841"/>
  <trkpt lat="46.3594124" lon="-0.1142453"/>
  <trkpt lat="46.3594313" lon="-0.1142050"/>
  <trkpt lat="46.3595653" lon="-0.1141283"/>
  <trkpt lat="46.3596004" lon="-0.1141192"/>
  <trkpt lat="46.3595896" lon="-0.1141829"/>
  <trkpt lat="46.3595968" lon="-0.1143934"/>
  <trkpt lat="46.3596058" lon="-0.1144986"/>
  <trkpt lat="46.3596274" lon="-0.1146026"/>
  <trkpt lat="46.3596787" lon="-0.1147546"/>
  <trkpt lat="46.3597803" lon="-0.1150729"/>
  <trkpt lat="46.3598019" lon="-0.1150573"/>
  <trkpt lat="46.3598514" lon="-0.1151626"/>
  <trkpt lat="46.3598739" lon="-0.1152678"/>
  <trkpt lat="46.3599540" lon="-0.1153198"/>
  <trkpt lat="46.3600727" lon="-0.1153471"/>
  <trkpt lat="46.3600619" lon="-0.1154225"/>
  <trkpt lat="46.3600376" lon="-0.1155654"/>
  <trkpt lat="46.3599693" lon="-0.1160137"/>
  <trkpt lat="46.3599396" lon="-0.1162021"/>
  <trkpt lat="46.3598946" lon="-0.1165607"/>
  <trkpt lat="46.3597857" lon="-0.1174169"/>
  <trkpt lat="46.3598946" lon="-0.1165607"/>
  <trkpt lat="46.3599396" lon="-0.1162021"/>
  <trkpt lat="46.3599693" lon="-0.1160137"/>
  <trkpt lat="46.3600376" lon="-0.1155654"/>
  <trkpt lat="46.3600619" lon="-0.1154225"/>
  <trkpt lat="46.3600727" lon="-0.1153471"/>
  <trkpt lat="46.3599540" lon="-0.1153198"/>
  <trkpt lat="46.3598739" lon="-0.1152678"/>
  <trkpt lat="46.3598514" lon="-0.1151626"/>
  <trkpt lat="46.3598019" lon="-0.1150573"/>
  <trkpt lat="46.3597803" lon="-0.1150729"/>
  <trkpt lat="46.3596787" lon="-0.1147546"/>
  <trkpt lat="46.3596274" lon="-0.1146026"/>
  <trkpt lat="46.3596058" lon="-0.1144986"/>
  <trkpt lat="46.3595968" lon="-0.1143934"/>
  <trkpt lat="46.3595896" lon="-0.1141829"/>
  <trkpt lat="46.3596004" lon="-0.1141192"/>
  <trkpt lat="46.3596688" lon="-0.1141010"/>
  <trkpt lat="46.3597291" lon="-0.1141140"/>
  <trkpt lat="46.3597030" lon="-0.1139815"/>
  <trkpt lat="46.3596778" lon="-0.1139126"/>
  <trkpt lat="46.3596157" lon="-0.1138022"/>
  <trkpt lat="46.3595285" lon="-0.1136632"/>
  <trkpt lat="46.3598181" lon="-0.1131291"/>
  <trkpt lat="46.3599171" lon="-0.1132136"/>
  <trkpt lat="46.3601654" lon="-0.1134085"/>
  <trkpt lat="46.3603651" lon="-0.1136203"/>
  <trkpt lat="46.3604245" lon="-0.1135033"/>
  <trkpt lat="46.3604937" lon="-0.1133955"/>
  <trkpt lat="46.3605963" lon="-0.1133149"/>
  <trkpt lat="46.3605945" lon="-0.1131902"/>
  <trkpt lat="46.3606665" lon="-0.1129212"/>
  <trkpt lat="46.3606764" lon="-0.1127133"/>
  <trkpt lat="46.3605918" lon="-0.1126588"/>
 </trkseg></trk>
</gpx>
